[Satellite]
VERSION=1.1
NAME=CZ-7 R/B
NICKNAME=CZ-7 R/B
TLE1=1 54240U 22152D   22319.24984339  .10007474  82552-5  20116-3 0  9999
TLE2=2 54240  41.4562  16.6255 0006771 260.8925 104.4457 16.46752422   528
STATUS=0
